[{"OBJECT_NAME":"IRIDIUM 107","OBJECT_ID":"2017-061F","EPOCH":"2026-03-09T22:26:14.574624","MEAN_MOTION":14.34217551,"ECCENTRICITY":0.00017516,"INCLINATION":86.3913,"RA_OF_ASC_NODE":66.7602,"ARG_OF_PERICENTER":87.4442,"MEAN_ANOMALY":272.6954,"EPHEMERIS_TYPE":0,"CLASSIFICATION_TYPE":"U","NORAD_CAT_ID":42960,"ELEMENT_SET_NO":999,"REV_AT_EPOCH":44059,"BSTAR":-3.536384e-6,"MEAN_MOTION_DOT":1.0e-7,"MEAN_MOTION_DDOT":0},{"OBJECT_NAME":"THOR ABLESTAR R\/B","OBJECT_ID":"1960-007C","EPOCH":"2026-03-09T22:37:45.213888","MEAN_MOTION":14.45192104,"ECCENTRICITY":0.02227051,"INCLINATION":66.6656,"RA_OF_ASC_NODE":313.2953,"ARG_OF_PERICENTER":212.46,"MEAN_ANOMALY":146.2649,"EPHEMERIS_TYPE":0,"CLASSIFICATION_TYPE":"U","NORAD_CAT_ID":47,"ELEMENT_SET_NO":999,"REV_AT_EPOCH":43646,"BSTAR":0.00011233029,"MEAN_MOTION_DOT":4.2e-6,"MEAN_MOTION_DDOT":0}]
